PROGRESS-MS 32          
1 65586U 25204A   25341.89741187  .00012051  00000+0  22339-3 0  9993
2 65586  51.6302 166.4547 0003425 217.7386 142.3363 15.49404055   278
CYGNUS NG-23            
1 65616U 25208A   25341.89741187  .00012051  00000+0  22339-3 0  9991
2 65616  51.6302 166.4547 0003425 217.7386 142.3363 15.49404055   227
DRAGONFLY               
1 65729U 98067XH  25341.77637827  .00190590  00000+0  15255-2 0  9994
2 65729  51.6247 161.1411 0006453 246.5239 113.5080 15.69912986 12388
1998-067XK              
1 65731U 98067XK  25341.75385763  .00117476  00000+0  11824-2 0  9994
2 65731  51.6281 162.5042 0005505 215.4402 144.6228 15.64530779 12366
RSP-03                  
1 65732U 98067XL  25341.76730639  .00153139  00000+0  13851-2 0  9990
2 65732  51.6259 161.8362 0006298 219.1939 140.8602 15.67058622 12386
GHS-01                  
1 65733U 98067XM  25341.79992966  .00238468  00000+0  17130-2 0  9990
2 65733  51.6274 160.5539 0006928 245.5916 114.4360 15.72338376 12408
YOTSUBA-KULOVER         
1 65941U 98067XN  25341.52041533  .00083069  00000+0  10602-2 0  9999
2 65941  51.6280 166.1928 0001795 200.6390 159.4530 15.58552395  9042
BOTAN                   
1 65942U 98067XP  25341.79259944  .00131716  00000+0  14857-2 0  9995
2 65942  51.6278 164.2597 0003846 199.4813 160.6034 15.61568201  9090
E-KAGAKU-1              
1 65943U 98067XQ  25341.77684631  .00088516  00000+0  11280-2 0  9995
2 65943  51.6295 164.9078 0002958 173.7443 186.3587 15.58562644  9086
HRC MONOBLOCK CAMERA    
1 66052U 98067XR  25341.76341036  .00045680  00000+0  70532-3 0  9996
2 66052  51.6286 166.3103 0003980 163.9442 196.1676 15.53649665  8068
HTV-X1                  
1 66174U 25241A   25341.89741187  .00012051  00000+0  22339-3 0  9998
2 66174  51.6302 166.4547 0003425 217.7386 142.3363 15.49404055   519
SZ-21 MODULE            
1 66515U 25246C   25341.87272127  .00030277  00000+0  33745-3 0  9996
2 66515  41.4776  45.7288 0006204 233.3043 126.7226 15.62136924  3680
