CCSDS_OMM_VERS = 2.0
CREATION_DATE  = 
ORIGINATOR     = 

OBJECT_NAME    = PROGRESS-MS 32
OBJECT_ID      = 2025-204A
CENTER_NAME    = EARTH
REF_FRAME      = TEME
TIME_SYSTEM    = UTC
MEAN_ELEMENT_THEORY = SGP/SGP4

EPOCH          = 2025-12-07T21:32:16.385568
MEAN_MOTION    = 15.49404055
ECCENTRICITY   = .0003425
INCLINATION    = 51.6302
RA_OF_ASC_NODE = 166.4547
ARG_OF_PERICENTER = 217.7386
MEAN_ANOMALY   = 142.3363

EPHEMERIS_TYPE = 0
CLASSIFICATION_TYPE = U
NORAD_CAT_ID   = 65586
ELEMENT_SET_NO = 999
REV_AT_EPOCH   = 27
BSTAR          = .22339025E-3
MEAN_MOTION_DOT = .12051E-3
MEAN_MOTION_DDOT = 0

CCSDS_OMM_VERS = 2.0
CREATION_DATE  = 
ORIGINATOR     = 

OBJECT_NAME    = CYGNUS NG-23
OBJECT_ID      = 2025-208A
CENTER_NAME    = EARTH
REF_FRAME      = TEME
TIME_SYSTEM    = UTC
MEAN_ELEMENT_THEORY = SGP/SGP4

EPOCH          = 2025-12-07T21:32:16.385568
MEAN_MOTION    = 15.49404055
ECCENTRICITY   = .0003425
INCLINATION    = 51.6302
RA_OF_ASC_NODE = 166.4547
ARG_OF_PERICENTER = 217.7386
MEAN_ANOMALY   = 142.3363

EPHEMERIS_TYPE = 0
CLASSIFICATION_TYPE = U
NORAD_CAT_ID   = 65616
ELEMENT_SET_NO = 999
REV_AT_EPOCH   = 22
BSTAR          = .22339025E-3
MEAN_MOTION_DOT = .12051E-3
MEAN_MOTION_DDOT = 0

CCSDS_OMM_VERS = 2.0
CREATION_DATE  = 
ORIGINATOR     = 

OBJECT_NAME    = DRAGONFLY
OBJECT_ID      = 1998-067XH
CENTER_NAME    = EARTH
REF_FRAME      = TEME
TIME_SYSTEM    = UTC
MEAN_ELEMENT_THEORY = SGP/SGP4

EPOCH          = 2025-12-07T18:37:59.082528
MEAN_MOTION    = 15.69912986
ECCENTRICITY   = .00064534
INCLINATION    = 51.6247
RA_OF_ASC_NODE = 161.1411
ARG_OF_PERICENTER = 246.5239
MEAN_ANOMALY   = 113.5080

EPHEMERIS_TYPE = 0
CLASSIFICATION_TYPE = U
NORAD_CAT_ID   = 65729
ELEMENT_SET_NO = 999
REV_AT_EPOCH   = 1238
BSTAR          = .15255266E-2
MEAN_MOTION_DOT = .19059E-2
MEAN_MOTION_DDOT = 0

CCSDS_OMM_VERS = 2.0
CREATION_DATE  = 
ORIGINATOR     = 

OBJECT_NAME    = 1998-067XK
OBJECT_ID      = 1998-067XK
CENTER_NAME    = EARTH
REF_FRAME      = TEME
TIME_SYSTEM    = UTC
MEAN_ELEMENT_THEORY = SGP/SGP4

EPOCH          = 2025-12-07T18:05:33.299232
MEAN_MOTION    = 15.64530779
ECCENTRICITY   = .00055056
INCLINATION    = 51.6281
RA_OF_ASC_NODE = 162.5042
ARG_OF_PERICENTER = 215.4402
MEAN_ANOMALY   = 144.6228

EPHEMERIS_TYPE = 0
CLASSIFICATION_TYPE = U
NORAD_CAT_ID   = 65731
ELEMENT_SET_NO = 999
REV_AT_EPOCH   = 1236
BSTAR          = .11823689E-2
MEAN_MOTION_DOT = .117476E-2
MEAN_MOTION_DDOT = 0

CCSDS_OMM_VERS = 2.0
CREATION_DATE  = 
ORIGINATOR     = 

OBJECT_NAME    = RSP-03
OBJECT_ID      = 1998-067XL
CENTER_NAME    = EARTH
REF_FRAME      = TEME
TIME_SYSTEM    = UTC
MEAN_ELEMENT_THEORY = SGP/SGP4

EPOCH          = 2025-12-07T18:24:55.272096
MEAN_MOTION    = 15.67058622
ECCENTRICITY   = .00062986
INCLINATION    = 51.6259
RA_OF_ASC_NODE = 161.8362
ARG_OF_PERICENTER = 219.1939
MEAN_ANOMALY   = 140.8602

EPHEMERIS_TYPE = 0
CLASSIFICATION_TYPE = U
NORAD_CAT_ID   = 65732
ELEMENT_SET_NO = 999
REV_AT_EPOCH   = 1238
BSTAR          = .13851426E-2
MEAN_MOTION_DOT = .153139E-2
MEAN_MOTION_DDOT = 0

CCSDS_OMM_VERS = 2.0
CREATION_DATE  = 
ORIGINATOR     = 

OBJECT_NAME    = GHS-01
OBJECT_ID      = 1998-067XM
CENTER_NAME    = EARTH
REF_FRAME      = TEME
TIME_SYSTEM    = UTC
MEAN_ELEMENT_THEORY = SGP/SGP4

EPOCH          = 2025-12-07T19:11:53.922624
MEAN_MOTION    = 15.72338376
ECCENTRICITY   = .00069283
INCLINATION    = 51.6274
RA_OF_ASC_NODE = 160.5539
ARG_OF_PERICENTER = 245.5916
MEAN_ANOMALY   = 114.4360

EPHEMERIS_TYPE = 0
CLASSIFICATION_TYPE = U
NORAD_CAT_ID   = 65733
ELEMENT_SET_NO = 999
REV_AT_EPOCH   = 1240
BSTAR          = .17129744E-2
MEAN_MOTION_DOT = .238468E-2
MEAN_MOTION_DDOT = 0

CCSDS_OMM_VERS = 2.0
CREATION_DATE  = 
ORIGINATOR     = 

OBJECT_NAME    = YOTSUBA-KULOVER
OBJECT_ID      = 1998-067XN
CENTER_NAME    = EARTH
REF_FRAME      = TEME
TIME_SYSTEM    = UTC
MEAN_ELEMENT_THEORY = SGP/SGP4

EPOCH          = 2025-12-07T12:29:23.884512
MEAN_MOTION    = 15.58552395
ECCENTRICITY   = .00017957
INCLINATION    = 51.6280
RA_OF_ASC_NODE = 166.1928
ARG_OF_PERICENTER = 200.6390
MEAN_ANOMALY   = 159.4530

EPHEMERIS_TYPE = 0
CLASSIFICATION_TYPE = U
NORAD_CAT_ID   = 65941
ELEMENT_SET_NO = 999
REV_AT_EPOCH   = 904
BSTAR          = .10602119E-2
MEAN_MOTION_DOT = .83069E-3
MEAN_MOTION_DDOT = 0

CCSDS_OMM_VERS = 2.0
CREATION_DATE  = 
ORIGINATOR     = 

OBJECT_NAME    = BOTAN
OBJECT_ID      = 1998-067XP
CENTER_NAME    = EARTH
REF_FRAME      = TEME
TIME_SYSTEM    = UTC
MEAN_ELEMENT_THEORY = SGP/SGP4

EPOCH          = 2025-12-07T19:01:20.591616
MEAN_MOTION    = 15.61568201
ECCENTRICITY   = .00038466
INCLINATION    = 51.6278
RA_OF_ASC_NODE = 164.2597
ARG_OF_PERICENTER = 199.4813
MEAN_ANOMALY   = 160.6034

EPHEMERIS_TYPE = 0
CLASSIFICATION_TYPE = U
NORAD_CAT_ID   = 65942
ELEMENT_SET_NO = 999
REV_AT_EPOCH   = 909
BSTAR          = .14856756E-2
MEAN_MOTION_DOT = .131716E-2
MEAN_MOTION_DDOT = 0

CCSDS_OMM_VERS = 2.0
CREATION_DATE  = 
ORIGINATOR     = 

OBJECT_NAME    = E-KAGAKU-1
OBJECT_ID      = 1998-067XQ
CENTER_NAME    = EARTH
REF_FRAME      = TEME
TIME_SYSTEM    = UTC
MEAN_ELEMENT_THEORY = SGP/SGP4

EPOCH          = 2025-12-07T18:38:39.521184
MEAN_MOTION    = 15.58562644
ECCENTRICITY   = .00029586
INCLINATION    = 51.6295
RA_OF_ASC_NODE = 164.9078
ARG_OF_PERICENTER = 173.7443
MEAN_ANOMALY   = 186.3587

EPHEMERIS_TYPE = 0
CLASSIFICATION_TYPE = U
NORAD_CAT_ID   = 65943
ELEMENT_SET_NO = 999
REV_AT_EPOCH   = 908
BSTAR          = .11280115E-2
MEAN_MOTION_DOT = .88516E-3
MEAN_MOTION_DDOT = 0

CCSDS_OMM_VERS = 2.0
CREATION_DATE  = 
ORIGINATOR     = 

OBJECT_NAME    = HRC MONOBLOCK CAMERA
OBJECT_ID      = 1998-067XR
CENTER_NAME    = EARTH
REF_FRAME      = TEME
TIME_SYSTEM    = UTC
MEAN_ELEMENT_THEORY = SGP/SGP4

EPOCH          = 2025-12-07T18:19:18.655104
MEAN_MOTION    = 15.53649665
ECCENTRICITY   = .000398
INCLINATION    = 51.6286
RA_OF_ASC_NODE = 166.3103
ARG_OF_PERICENTER = 163.9442
MEAN_ANOMALY   = 196.1676

EPHEMERIS_TYPE = 0
CLASSIFICATION_TYPE = U
NORAD_CAT_ID   = 66052
ELEMENT_SET_NO = 999
REV_AT_EPOCH   = 806
BSTAR          = .70532392E-3
MEAN_MOTION_DOT = .4568E-3
MEAN_MOTION_DDOT = 0

CCSDS_OMM_VERS = 2.0
CREATION_DATE  = 
ORIGINATOR     = 

OBJECT_NAME    = HTV-X1
OBJECT_ID      = 2025-241A
CENTER_NAME    = EARTH
REF_FRAME      = TEME
TIME_SYSTEM    = UTC
MEAN_ELEMENT_THEORY = SGP/SGP4

EPOCH          = 2025-12-07T21:32:16.385568
MEAN_MOTION    = 15.49404055
ECCENTRICITY   = .0003425
INCLINATION    = 51.6302
RA_OF_ASC_NODE = 166.4547
ARG_OF_PERICENTER = 217.7386
MEAN_ANOMALY   = 142.3363

EPHEMERIS_TYPE = 0
CLASSIFICATION_TYPE = U
NORAD_CAT_ID   = 66174
ELEMENT_SET_NO = 999
REV_AT_EPOCH   = 51
BSTAR          = .22339025E-3
MEAN_MOTION_DOT = .12051E-3
MEAN_MOTION_DDOT = 0

CCSDS_OMM_VERS = 2.0
CREATION_DATE  = 
ORIGINATOR     = 

OBJECT_NAME    = SZ-21 MODULE
OBJECT_ID      = 2025-246C
CENTER_NAME    = EARTH
REF_FRAME      = TEME
TIME_SYSTEM    = UTC
MEAN_ELEMENT_THEORY = SGP/SGP4

EPOCH          = 2025-12-07T20:56:43.117728
MEAN_MOTION    = 15.62136924
ECCENTRICITY   = .00062043
INCLINATION    = 41.4776
RA_OF_ASC_NODE = 45.7288
ARG_OF_PERICENTER = 233.3043
MEAN_ANOMALY   = 126.7226

EPHEMERIS_TYPE = 0
CLASSIFICATION_TYPE = U
NORAD_CAT_ID   = 66515
ELEMENT_SET_NO = 999
REV_AT_EPOCH   = 368
BSTAR          = .33745404E-3
MEAN_MOTION_DOT = .30277E-3
MEAN_MOTION_DDOT = 0

